{
  "links" : {
    "next" : "https://api.nasa.gov/neo/rest/v1/feed?start_date=2012-06-16&end_date=2012-06-16&detailed=true&api_key=t0TVs3DtDT2H8Oy2Zy8m2eVrNsAVKAexjcZXUckd",
    "prev" : "https://api.nasa.gov/neo/rest/v1/feed?start_date=2012-06-14&end_date=2012-06-14&detailed=true&api_key=t0TVs3DtDT2H8Oy2Zy8m2eVrNsAVKAexjcZXUckd",
    "self" : "https://api.nasa.gov/neo/rest/v1/feed?start_date=2012-06-15&end_date=2012-06-15&detailed=true&api_key=t0TVs3DtDT2H8Oy2Zy8m2eVrNsAVKAexjcZXUckd"
  },
  "element_count" : 8,
  "near_earth_objects" : {
    "2012-06-15" : [ {
      "links" : {
        "self" : "https://api.nasa.gov/neo/rest/v1/neo/3603608?api_key=t0TVs3DtDT2H8Oy2Zy8m2eVrNsAVKAexjcZXUckd"
      },
      "neo_reference_id" : "3603608",
      "name" : "(2012 HN40)",
      "nasa_jpl_url" : "http://ssd.jpl.nasa.gov/sbdb.cgi?sstr=3603608",
      "absolute_magnitude_h" : 20.4,
      "estimated_diameter" : {
        "kilometers" : {
          "estimated_diameter_min" : 0.2210828104,
          "estimated_diameter_max" : 0.4943561926
        },
        "meters" : {
          "estimated_diameter_min" : 221.0828103591,
          "estimated_diameter_max" : 494.3561926196
        },
        "miles" : {
          "estimated_diameter_min" : 0.137374447,
          "estimated_diameter_max" : 0.3071786018
        },
        "feet" : {
          "estimated_diameter_min" : 725.3373275385,
          "estimated_diameter_max" : 1621.9035709942
        }
      },
      "is_potentially_hazardous_asteroid" : false,
      "close_approach_data" : [ {
        "close_approach_date" : "2012-06-15",
        "epoch_date_close_approach" : 1339743600000,
        "relative_velocity" : {
          "kilometers_per_second" : "13.7892209961",
          "kilometers_per_hour" : "49641.1955861058",
          "miles_per_hour" : "30845.1084462667"
        },
        "miss_distance" : {
          "astronomical" : "0.1182204889",
          "lunar" : "45.9877700806",
          "kilometers" : "17685534",
          "miles" : "10989281"
        },
        "orbiting_body" : "Earth"
      } ],
      "orbital_data" : {
        "orbit_id" : "19",
        "orbit_determination_date" : "2017-04-06 08:49:53",
        "orbit_uncertainty" : "5",
        "minimum_orbit_intersection" : ".0750764",
        "jupiter_tisserand_invariant" : "2.958",
        "epoch_osculation" : "2458000.5",
        "eccentricity" : ".6712995352297907",
        "semi_major_axis" : "2.706359787315125",
        "inclination" : "14.38840070153532",
        "ascending_node_longitude" : "60.62506124531999",
        "orbital_period" : "1626.210364256274",
        "perihelion_distance" : ".8895817199258865",
        "perihelion_argument" : "246.6149805480817",
        "aphelion_distance" : "4.523137854704364",
        "perihelion_time" : "2457762.273420526110",
        "mean_anomaly" : "52.73706925968486",
        "mean_motion" : ".2213735737471095",
        "equinox" : "J2000"
      }
    }, {
      "links" : {
        "self" : "https://api.nasa.gov/neo/rest/v1/neo/2476187?api_key=t0TVs3DtDT2H8Oy2Zy8m2eVrNsAVKAexjcZXUckd"
      },
      "neo_reference_id" : "2476187",
      "name" : "476187 (2007 UQ13)",
      "nasa_jpl_url" : "http://ssd.jpl.nasa.gov/sbdb.cgi?sstr=2476187",
      "absolute_magnitude_h" : 20.0,
      "estimated_diameter" : {
        "kilometers" : {
          "estimated_diameter_min" : 0.2658,
          "estimated_diameter_max" : 0.5943468684
        },
        "meters" : {
          "estimated_diameter_min" : 265.8,
          "estimated_diameter_max" : 594.3468684194
        },
        "miles" : {
          "estimated_diameter_min" : 0.1651604118,
          "estimated_diameter_max" : 0.369309908
        },
        "feet" : {
          "estimated_diameter_min" : 872.047272,
          "estimated_diameter_max" : 1949.9569797852
        }
      },
      "is_potentially_hazardous_asteroid" : false,
      "close_approach_data" : [ {
        "close_approach_date" : "2012-06-15",
        "epoch_date_close_approach" : 1339743600000,
        "relative_velocity" : {
          "kilometers_per_second" : "20.7057250192",
          "kilometers_per_hour" : "74540.6100692039",
          "miles_per_hour" : "46316.6362955006"
        },
        "miss_distance" : {
          "astronomical" : "0.462643488",
          "lunar" : "179.9683074951",
          "kilometers" : "69210480",
          "miles" : "43005396"
        },
        "orbiting_body" : "Earth"
      } ],
      "orbital_data" : {
        "orbit_id" : "29",
        "orbit_determination_date" : "2017-09-13 06:20:10",
        "orbit_uncertainty" : "0",
        "minimum_orbit_intersection" : ".290818",
        "jupiter_tisserand_invariant" : "5.213",
        "epoch_osculation" : "2458000.5",
        "eccentricity" : ".425387783337172",
        "semi_major_axis" : "1.165162325609391",
        "inclination" : "29.30270755503413",
        "ascending_node_longitude" : "217.6861206553845",
        "orbital_period" : "459.3863402579825",
        "perihelion_distance" : ".6695165066904281",
        "perihelion_argument" : "29.39476063372334",
        "aphelion_distance" : "1.660808144528354",
        "perihelion_time" : "2457927.627249236197",
        "mean_anomaly" : "57.10703165496055",
        "mean_motion" : ".7836541238858582",
        "equinox" : "J2000"
      }
    } ]
  }
}